{"type": "FeatureCollection", "features": [ {"type": "Feature", "properties": {"norad_id": 65077, "name": "CREW DRAGON 11", "group": "stations", "lat": 50.43440511411724, "lon": -84.59508914508179, "alt_km": 412.5561623973126, "timestamp": "2025-12-07T09:35:08.590766+00:00", "meta": {"OBJECT_NAME": "CREW DRAGON 11", "OBJECT_ID": "2025-166A", "EPOCH": "2025-12-06T20:46:13.238400", "MEAN_MOTION": 15.49374779, "ECCENTRICITY": 0.00034973, "INCLINATION": 51.6304, "RA_OF_ASC_NODE": 171.5636, "ARG_OF_PERICENTER": 213.1314, "MEAN_ANOMALY": 146.9456, "EPHEMERIS_TYPE": 0, "CLASSIFICATION_TYPE": "U", "NORAD_CAT_ID": 65077, "ELEMENT_SET_NO": 999, "REV_AT_EPOCH": 214, "BSTAR": 0.00025393652, "MEAN_MOTION_DOT": 0.0001375, "MEAN_MOTION_DDOT": 0}, "tle": {"line1": "1 65077U 25166A   25340.86543100  .00013750  00000+0  25394-3 0  9997", "line2": "2 65077  51.6304 171.5636 0003497 213.1314 146.9456 15.49374779  2141"}}, "geometry": {"type": "Point", "coordinates": [-84.59508914508179, 50.43440511411724]}}, {"type": "Feature", "properties": {"norad_id": 65304, "name": "DRAGON CRS-33", "group": "stations", "lat": 50.43440494147018, "lon": -84.59508795771346, "alt_km": 412.5561623920539, "timestamp": "2025-12-07T09:35:08.590778+00:00", "meta": {"OBJECT_NAME": "DRAGON CRS-33", "OBJECT_ID": "2025-186A", "EPOCH": "2025-12-06T20:46:13.238400", "MEAN_MOTION": 15.49374779, "ECCENTRICITY": 0.00034973, "INCLINATION": 51.6304, "RA_OF_ASC_NODE": 171.5636, "ARG_OF_PERICENTER": 213.1314, "MEAN_ANOMALY": 146.9456, "EPHEMERIS_TYPE": 0, "CLASSIFICATION_TYPE": "U", "NORAD_CAT_ID": 65304, "ELEMENT_SET_NO": 999, "REV_AT_EPOCH": 11, "BSTAR": 0.00025393652, "MEAN_MOTION_DOT": 0.0001375, "MEAN_MOTION_DDOT": 0}, "tle": {"line1": "1 65304U 25186A   25340.86543100  .00013750  00000+0  25394-3 0  9992", "line2": "2 65304  51.6304 171.5636 0003497 213.1314 146.9456 15.49374779   119"}}, "geometry": {"type": "Point", "coordinates": [-84.59508795771346, 50.43440494147018]}}, {"type": "Feature", "properties": {"norad_id": 65586, "name": "PROGRESS-MS 32", "group": "stations", "lat": 50.43440478321021, "lon": -84.59508686929145, "alt_km": 412.5561623872354, "timestamp": "2025-12-07T09:35:08.590789+00:00", "meta": {"OBJECT_NAME": "PROGRESS-MS 32", "OBJECT_ID": "2025-204A", "EPOCH": "2025-12-06T20:46:13.238400", "MEAN_MOTION": 15.49374779, "ECCENTRICITY": 0.00034973, "INCLINATION": 51.6304, "RA_OF_ASC_NODE": 171.5636, "ARG_OF_PERICENTER": 213.1314, "MEAN_ANOMALY": 146.9456, "EPHEMERIS_TYPE": 0, "CLASSIFICATION_TYPE": "U", "NORAD_CAT_ID": 65586, "ELEMENT_SET_NO": 999, "REV_AT_EPOCH": 27, "BSTAR": 0.00025393652, "MEAN_MOTION_DOT": 0.0001375, "MEAN_MOTION_DDOT": 0}, "tle": {"line1": "1 65586U 25204A   25340.86543100  .00013750  00000+0  25394-3 0  9995", "line2": "2 65586  51.6304 171.5636 0003497 213.1314 146.9456 15.49374779   278"}}, "geometry": {"type": "Point", "coordinates": [-84.59508686929145, 50.43440478321021]}}, {"type": "Feature", "properties": {"norad_id": 65616, "name": "CYGNUS NG-23", "group": "stations", "lat": 50.434404639337714, "lon": -84.59508587981824, "alt_km": 412.55616238285256, "timestamp": "2025-12-07T09:35:08.590799+00:00", "meta": {"OBJECT_NAME": "CYGNUS NG-23", "OBJECT_ID": "2025-208A", "EPOCH": "2025-12-06T20:46:13.238400", "MEAN_MOTION": 15.49374779, "ECCENTRICITY": 0.00034973, "INCLINATION": 51.6304, "RA_OF_ASC_NODE": 171.5636, "ARG_OF_PERICENTER": 213.1314, "MEAN_ANOMALY": 146.9456, "EPHEMERIS_TYPE": 0, "CLASSIFICATION_TYPE": "U", "NORAD_CAT_ID": 65616, "ELEMENT_SET_NO": 999, "REV_AT_EPOCH": 22, "BSTAR": 0.00025393652, "MEAN_MOTION_DOT": 0.0001375, "MEAN_MOTION_DDOT": 0}, "tle": {"line1": "1 65616U 25208A   25340.86543100  .00013750  00000+0  25394-3 0  9993", "line2": "2 65616  51.6304 171.5636 0003497 213.1314 146.9456 15.49374779   227"}}, "geometry": {"type": "Point", "coordinates": [-84.59508587981824, 50.434404639337714]}}, {"type": "Feature", "properties": {"norad_id": 65729, "name": "DRAGONFLY", "group": "stations", "lat": 21.68789133000492, "lon": -178.56512987153724, "alt_km": 360.60010145643264, "timestamp": "2025-12-07T09:35:08.590812+00:00", "meta": {"OBJECT_NAME": "DRAGONFLY", "OBJECT_ID": "1998-067XH", "EPOCH": "2025-12-06T18:11:12.021792", "MEAN_MOTION": 15.69539731, "ECCENTRICITY": 0.00064636, "INCLINATION": 51.6244, "RA_OF_ASC_NODE": 166.34, "ARG_OF_PERICENTER": 240.1975, "MEAN_ANOMALY": 119.838, "EPHEMERIS_TYPE": 0, "CLASSIFICATION_TYPE": "U", "NORAD_CAT_ID": 65729, "ELEMENT_SET_NO": 999, "REV_AT_EPOCH": 1222, "BSTAR": 0.0016006166, "MEAN_MOTION_DOT": 0.00197078, "MEAN_MOTION_DDOT": 0}, "tle": {"line1": "1 65729U 98067XH  25340.75777803  .00197078  00000+0  16006-2 0  9993", "line2": "2 65729  51.6244 166.3400 0006463 240.1975 119.8380 15.69539731 12226"}}, "geometry": {"type": "Point", "coordinates": [-178.56512987153724, 21.68789133000492]}}, {"type": "Feature", "properties": {"norad_id": 65731, "name": "1998-067XK", "group": "stations", "lat": 13.673265734931269, "lon": -26.8168241086445, "alt_km": 371.14519593883506, "timestamp": "2025-12-07T09:35:08.590822+00:00", "meta": {"OBJECT_NAME": "1998-067XK", "OBJECT_ID": "1998-067XK", "EPOCH": "2025-12-06T19:05:46.784832", "MEAN_MOTION": 15.6431708, "ECCENTRICITY": 0.00056148, "INCLINATION": 51.6275, "RA_OF_ASC_NODE": 167.356, "ARG_OF_PERICENTER": 209.7044, "MEAN_ANOMALY": 150.3633, "EPHEMERIS_TYPE": 0, "CLASSIFICATION_TYPE": "U", "NORAD_CAT_ID": 65731, "ELEMENT_SET_NO": 999, "REV_AT_EPOCH": 1221, "BSTAR": 0.001226721, "MEAN_MOTION_DOT": 0.00120927, "MEAN_MOTION_DDOT": 0}, "tle": {"line1": "1 65731U 98067XK  25340.79568038  .00120927  00000+0  12267-2 0  9992", "line2": "2 65731  51.6275 167.3560 0005614 209.7044 150.3633 15.64317080 12212"}}, "geometry": {"type": "Point", "coordinates": [-26.8168241086445, 13.673265734931269]}}, {"type": "Feature", "properties": {"norad_id": 65732, "name": "RSP-03", "group": "stations", "lat": 51.09919478528089, "lon": -117.1659368337044, "alt_km": 363.4591855468607, "timestamp": "2025-12-07T09:35:08.590832+00:00", "meta": {"OBJECT_NAME": "RSP-03", "OBJECT_ID": "1998-067XL", "EPOCH": "2025-12-06T19:27:20.778624", "MEAN_MOTION": 15.66782346, "ECCENTRICITY": 0.00064361, "INCLINATION": 51.6255, "RA_OF_ASC_NODE": 166.6987, "ARG_OF_PERICENTER": 212.9717, "MEAN_ANOMALY": 147.0878, "EPHEMERIS_TYPE": 0, "CLASSIFICATION_TYPE": "U", "NORAD_CAT_ID": 65732, "ELEMENT_SET_NO": 999, "REV_AT_EPOCH": 1223, "BSTAR": 0.0014177456, "MEAN_MOTION_DOT": 0.00155052, "MEAN_MOTION_DDOT": 0}, "tle": {"line1": "1 65732U 98067XL  25340.81065716  .00155052  00000+0  14177-2 0  9990", "line2": "2 65732  51.6255 166.6987 0006436 212.9717 147.0878 15.66782346 12231"}}, "geometry": {"type": "Point", "coordinates": [-117.1659368337044, 51.09919478528089]}}, {"type": "Feature", "properties": {"norad_id": 65733, "name": "GHS-01", "group": "stations", "lat": -48.025355974056446, "lon": 44.34665898108329, "alt_km": 352.6456054530363, "timestamp": "2025-12-07T09:35:08.590843+00:00", "meta": {"OBJECT_NAME": "GHS-01", "OBJECT_ID": "1998-067XM", "EPOCH": "2025-12-06T18:47:20.289408", "MEAN_MOTION": 15.71874043, "ECCENTRICITY": 0.00068988, "INCLINATION": 51.6272, "RA_OF_ASC_NODE": 165.7632, "ARG_OF_PERICENTER": 241.192, "MEAN_ANOMALY": 118.8385, "EPHEMERIS_TYPE": 0, "CLASSIFICATION_TYPE": "U", "NORAD_CAT_ID": 65733, "ELEMENT_SET_NO": 999, "REV_AT_EPOCH": 1224, "BSTAR": 0.00174144, "MEAN_MOTION_DOT": 0.00237688, "MEAN_MOTION_DDOT": 0}, "tle": {"line1": "1 65733U 98067XM  25340.78287372  .00237688  00000+0  17414-2 0  9994", "line2": "2 65733  51.6272 165.7632 0006898 241.1920 118.8385 15.71874043 12242"}}, "geometry": {"type": "Point", "coordinates": [44.34665898108329, -48.025355974056446]}}, {"type": "Feature", "properties": {"norad_id": 65941, "name": "YOTSUBA-KULOVER", "group": "stations", "lat": 30.681593668825787, "lon": -165.15844671067904, "alt_km": 389.1833172619672, "timestamp": "2025-12-07T09:35:08.590853+00:00", "meta": {"OBJECT_NAME": "YOTSUBA-KULOVER", "OBJECT_ID": "1998-067XN", "EPOCH": "2025-12-06T19:33:42.622560", "MEAN_MOTION": 15.58441577, "ECCENTRICITY": 0.00019681, "INCLINATION": 51.6278, "RA_OF_ASC_NODE": 169.7328, "ARG_OF_PERICENTER": 197.1439, "MEAN_ANOMALY": 162.9487, "EPHEMERIS_TYPE": 0, "CLASSIFICATION_TYPE": "U", "NORAD_CAT_ID": 65941, "ELEMENT_SET_NO": 999, "REV_AT_EPOCH": 893, "BSTAR": 0.0011638994, "MEAN_MOTION_DOT": 0.00090951, "MEAN_MOTION_DDOT": 0}, "tle": {"line1": "1 65941U 98067XN  25340.81507665  .00090951  00000+0  11639-2 0  9992", "line2": "2 65941  51.6278 169.7328 0001968 197.1439 162.9487 15.58441577  8934"}}, "geometry": {"type": "Point", "coordinates": [-165.15844671067904, 30.681593668825787]}}, {"type": "Feature", "properties": {"norad_id": 65942, "name": "BOTAN", "group": "stations", "lat": -37.97894537096176, "lon": 128.0259524442115, "alt_km": 388.58508346116287, "timestamp": "2025-12-07T09:35:08.590863+00:00", "meta": {"OBJECT_NAME": "BOTAN", "OBJECT_ID": "1998-067XP", "EPOCH": "2025-12-06T18:26:46.199328", "MEAN_MOTION": 15.61316825, "ECCENTRICITY": 0.00039822, "INCLINATION": 51.627, "RA_OF_ASC_NODE": 169.4226, "ARG_OF_PERICENTER": 191.5132, "MEAN_ANOMALY": 168.5771, "EPHEMERIS_TYPE": 0, "CLASSIFICATION_TYPE": "U", "NORAD_CAT_ID": 65942, "ELEMENT_SET_NO": 999, "REV_AT_EPOCH": 893, "BSTAR": 0.001480583, "MEAN_MOTION_DOT": 0.00129965, "MEAN_MOTION_DDOT": 0}, "tle": {"line1": "1 65942U 98067XP  25340.76859027  .00129965  00000+0  14806-2 0  9996", "line2": "2 65942  51.6270 169.4226 0003982 191.5132 168.5771 15.61316825  8936"}}, "geometry": {"type": "Point", "coordinates": [128.0259524442115, -37.97894537096176]}}]}